{
  "norad_id": 64111,
  "name": "STARLINK-34148",
  "history": [
    {
      "epoch": "2026-03-28T21:25:23.983680Z",
      "apogee_km": 476.02190611742844,
      "perigee_km": 474.3976629294966,
      "latitude_deg": -3.4415561092151557e-05,
      "longitude_deg": 149.83328158388548,
      "height_km": 475.9679027222329,
      "semi_major_axis_km": 6853.346784523463,
      "eccentricity": 0.0001185,
      "inclination_deg": 53.1588,
      "raan_deg": 297.4898,
      "arg_perigee_deg": 80.075,
      "mean_anomaly_deg": 280.0384,
      "mean_motion_rev_day": 15.3020177
    },
    {
      "epoch": "2026-03-28T21:25:23.984544Z",
      "apogee_km": 476.0219746508974,
      "perigee_km": 474.3975943960295,
      "latitude_deg": 4.5199015654986434e-05,
      "longitude_deg": 149.83333729280454,
      "height_km": 475.9678790689361,
      "semi_major_axis_km": 6853.346784523463,
      "eccentricity": 0.00011851,
      "inclination_deg": 53.1588,
      "raan_deg": 297.4898,
      "arg_perigee_deg": 80.075,
      "mean_anomaly_deg": 280.0385,
      "mean_motion_rev_day": 15.3020177
    },
    {
      "epoch": "2026-03-29T22:30:15.107904Z",
      "apogee_km": 475.90423329139776,
      "perigee_km": 474.50341042741,
      "latitude_deg": 5.0896436865404355e-05,
      "longitude_deg": 127.73409334023448,
      "height_km": 476.16499454318233,
      "semi_major_axis_km": 6853.340821859404,
      "eccentricity": 0.0001022,
      "inclination_deg": 53.1592,
      "raan_deg": 292.6336,
      "arg_perigee_deg": 95.1482,
      "mean_anomaly_deg": 264.9636,
      "mean_motion_rev_day": 15.30203767
    },
    {
      "epoch": "2026-03-30T06:20:31.327008Z",
      "apogee_km": 476.293572721539,
      "perigee_km": 474.10968783361386,
      "latitude_deg": -6.814071252900844e-06,
      "longitude_deg": 8.327682484120967,
      "height_km": 476.15225576639386,
      "semi_major_axis_km": 6853.338630277576,
      "eccentricity": 0.00015933,
      "inclination_deg": 53.1589,
      "raan_deg": 291.1167,
      "arg_perigee_deg": 92.7881,
      "mean_anomaly_deg": 267.3302,
      "mean_motion_rev_day": 15.30204501
    },
    {
      "epoch": "2026-03-30T14:10:47.034624Z",
      "apogee_km": 475.99853563896613,
      "perigee_km": 474.35141063934134,
      "latitude_deg": -2.1517290247179854e-05,
      "longitude_deg": -111.07695925335004,
      "height_km": 476.24958986620305,
      "semi_major_axis_km": 6853.311973139153,
      "eccentricity": 0.00012017,
      "inclination_deg": 53.1592,
      "raan_deg": 289.5994,
      "arg_perigee_deg": 102.3746,
      "mean_anomaly_deg": 257.7389,
      "mean_motion_rev_day": 15.30213429
    },
    {
      "epoch": "2026-03-30T20:26:59.974656Z",
      "apogee_km": 475.9628591207056,
      "perigee_km": 474.38933843322593,
      "latitude_deg": 2.8936747546026473e-05,
      "longitude_deg": 153.3979513664872,
      "height_km": 475.9991601668022,
      "semi_major_axis_km": 6853.3130987769655,
      "eccentricity": 0.0001148,
      "inclination_deg": 53.1587,
      "raan_deg": 288.3857,
      "arg_perigee_deg": 84.5262,
      "mean_anomaly_deg": 275.587,
      "mean_motion_rev_day": 15.30213052
    },
    {
      "epoch": "2026-03-31T12:07:32.574432Z",
      "apogee_km": 475.97208181982114,
      "perigee_km": 474.51066741521845,
      "latitude_deg": -3.957889157670295e-05,
      "longitude_deg": -85.41451023741253,
      "height_km": 476.1973977332983,
      "semi_major_axis_km": 6853.3783746175195,
      "eccentricity": 0.00010662,
      "inclination_deg": 53.1575,
      "raan_deg": 285.3529,
      "arg_perigee_deg": 94.5475,
      "mean_anomaly_deg": 265.5647,
      "mean_motion_rev_day": 15.3019119
    },
    {
      "epoch": "2026-04-01T19:28:35.962176Z",
      "apogee_km": 476.4951586558427,
      "perigee_km": 473.74700216559813,
      "latitude_deg": 8.262194693448185e-06,
      "longitude_deg": 156.9641741067797,
      "height_km": 476.1800275072643,
      "semi_major_axis_km": 6853.25808041072,
      "eccentricity": 0.0002005,
      "inclination_deg": 53.1576,
      "raan_deg": 279.2832,
      "arg_perigee_deg": 96.7769,
      "mean_anomaly_deg": 263.346,
      "mean_motion_rev_day": 15.30231479
    },
    {
      "epoch": "2026-04-02T12:43:10.576128Z",
      "apogee_km": 476.0481071189324,
      "perigee_km": 474.2229435799818,
      "latitude_deg": -5.134263665326565e-05,
      "longitude_deg": -105.72463723181941,
      "height_km": 476.166697950358,
      "semi_major_axis_km": 6853.272525349456,
      "eccentricity": 0.00013316,
      "inclination_deg": 53.1545,
      "raan_deg": 275.9468,
      "arg_perigee_deg": 98.427,
      "mean_anomaly_deg": 261.6881,
      "mean_motion_rev_day": 15.30226641
    },
    {
      "epoch": "2026-04-03T20:04:15.055104Z",
      "apogee_km": 475.9037554356082,
      "perigee_km": 474.7304440937287,
      "latitude_deg": -2.9704065623288208e-05,
      "longitude_deg": 136.65036691454281,
      "height_km": 476.04268643362326,
      "semi_major_axis_km": 6853.454099764668,
      "eccentricity": 8.56e-05,
      "inclination_deg": 53.1579,
      "raan_deg": 269.878,
      "arg_perigee_deg": 72.863,
      "mean_anomaly_deg": 287.2464,
      "mean_motion_rev_day": 15.30165829
    },
    {
      "epoch": "2026-04-04T16:26:56.867424Z",
      "apogee_km": 475.7259729662819,
      "perigee_km": 474.6404070481849,
      "latitude_deg": -4.104739353713987e-06,
      "longitude_deg": -173.80553894575115,
      "height_km": 476.03070034531106,
      "semi_major_axis_km": 6853.320190007233,
      "eccentricity": 7.92e-05,
      "inclination_deg": 53.1589,
      "raan_deg": 265.9332,
      "arg_perigee_deg": 84.5983,
      "mean_anomaly_deg": 275.5108,
      "mean_motion_rev_day": 15.30210677
    },
    {
      "epoch": "2026-04-05T17:31:48.117792Z",
      "apogee_km": 476.5808678225203,
      "perigee_km": 473.7134537296515,
      "latitude_deg": -6.812523699516179e-05,
      "longitude_deg": 164.09783246664128,
      "height_km": 474.75235087592256,
      "semi_major_axis_km": 6853.284160776086,
      "eccentricity": 0.0002092,
      "inclination_deg": 53.1589,
      "raan_deg": 261.0802,
      "arg_perigee_deg": 25.5685,
      "mean_anomaly_deg": 334.5418,
      "mean_motion_rev_day": 15.30222744
    },
    {
      "epoch": "2026-04-05T17:31:48.118656Z",
      "apogee_km": 476.5805251583133,
      "perigee_km": 473.7137963938594,
      "latitude_deg": -6.613996298612906e-05,
      "longitude_deg": 164.097830335955,
      "height_km": 474.7526599777711,
      "semi_major_axis_km": 6853.284160776086,
      "eccentricity": 0.00020915,
      "inclination_deg": 53.1589,
      "raan_deg": 261.0802,
      "arg_perigee_deg": 25.5685,
      "mean_anomaly_deg": 334.5418,
      "mean_motion_rev_day": 15.30222744
    },
    {
      "epoch": "2026-04-07T04:00:57.861504Z",
      "apogee_km": 475.9278776912852,
      "perigee_km": 474.402332642675,
      "latitude_deg": 2.8982999463408904e-05,
      "longitude_deg": -1.2790887705290688,
      "height_km": 475.4190807762617,
      "semi_major_axis_km": 6853.30210516698,
      "eccentricity": 0.0001113,
      "inclination_deg": 53.1603,
      "raan_deg": 254.4101,
      "arg_perigee_deg": 32.2579,
      "mean_anomaly_deg": 327.849,
      "mean_motion_rev_day": 15.30216734
    },
    {
      "epoch": "2026-04-07T19:41:29.994720Z",
      "apogee_km": 475.8572828765018,
      "perigee_km": 474.540071759322,
      "latitude_deg": -1.602927531666747e-05,
      "longitude_deg": 119.9079136676032,
      "height_km": 475.73155242469755,
      "semi_major_axis_km": 6853.335677317912,
      "eccentricity": 9.61e-05,
      "inclination_deg": 53.1599,
      "raan_deg": 251.3748,
      "arg_perigee_deg": 56.2574,
      "mean_anomaly_deg": 303.8518,
      "mean_motion_rev_day": 15.3020549
    },
    {
      "epoch": "2026-04-08T16:04:11.570304Z",
      "apogee_km": 475.8744875882903,
      "perigee_km": 474.52273567225257,
      "latitude_deg": 2.0399083177390813e-05,
      "longitude_deg": 169.4516030430964,
      "height_km": 475.9432989496366,
      "semi_major_axis_km": 6853.335611630271,
      "eccentricity": 9.862e-05,
      "inclination_deg": 53.1621,
      "raan_deg": 247.4286,
      "arg_perigee_deg": 76.8264,
      "mean_anomaly_deg": 283.2847,
      "mean_motion_rev_day": 15.30205512
    },
    {
      "epoch": "2026-04-09T03:02:34.075392Z",
      "apogee_km": 476.05428384965944,
      "perigee_km": 474.3488990745609,
      "latitude_deg": 5.68219502954032e-05,
      "longitude_deg": 2.282215857471477,
      "height_km": 476.0884198846613,
      "semi_major_axis_km": 6853.33859146211,
      "eccentricity": 0.00012442,
      "inclination_deg": 53.161,
      "raan_deg": 245.3036,
      "arg_perigee_deg": 89.2351,
      "mean_anomaly_deg": 270.8793,
      "mean_motion_rev_day": 15.30204514
    }
  ]
}